STARLINK-30841          
1 58208C 23170C   26102.00534722  .00010654  00000+0  38585-3 0  1023
2 58208  43.0014   6.3015 0001302 271.3990  24.0143 15.27575721    16
STARLINK-30839          
1 58209C 23170D   26101.95881944 -.00074995  00000+0 -27851-2 0  1010
2 58209  43.0012   5.9481 0001591 266.8374  38.5168 15.26794231    17
STARLINK-30846          
1 58210C 23170E   26102.00604167 -.00068532  00000+0 -24824-2 0  1027
2 58210  43.0026   6.5507 0001356 265.2977 294.8840 15.27609960    10
STARLINK-30838          
1 58211C 23170F   26101.97479167  .00002293  00000+0  83043-4 0  1012
2 58211  43.0037   6.0746 0001350 271.9951  32.0412 15.27577476    16
STARLINK-30837          
1 58212C 23170G   26102.00881944 -.00029613  00000+0 -10731-2 0  1028
2 58212  43.0014   6.4623 0001351 272.1733 324.5584 15.27578367    11
STARLINK-30813          
1 58213C 23170H   26101.95118056 -.00002240  00000+0 -81138-4 0  1016
2 58213  43.0023   6.2624 0001724 269.9620 242.8528 15.27579588    10
STARLINK-30805          
1 58214C 23170J   26101.97965278 -.00000021  00000+0 -76107-6 0  1012
2 58214  43.0029   5.9470 0001526 265.2522 107.9777 15.27584333    13
STARLINK-30851          
1 58215C 23170K   26102.01923611 -.00069862  00000+0 -25310-2 0  1029
2 58215  43.0032   5.7702 0001413 274.5048 295.4413 15.27605152    18
STARLINK-30818          
1 58217C 23170M   26101.96229167  .00001840  00000+0  68370-4 0  1013
2 58217  43.0026   6.1508 0001358 271.4639 322.4280 15.26741245    18
STARLINK-30794          
1 58218C 23170N   26101.94145833 -.00001612  00000+0 -59880-4 0  1014
2 58218  43.0033   6.0759 0001370 266.8541 284.6251 15.26748518    15
STARLINK-30835          
1 58219C 23170P   26101.94701389 -.00055715  00000+0 -20706-2 0  1015
2 58219  43.0026   6.3911 0001359 267.0503 176.6456 15.26760009    15
STARLINK-30792          
1 58220C 23170Q   26102.02756944  .00001480  00000+0  10033-3 0  1026
2 58220  43.0010  13.8170 0004311 209.7625 216.3951 15.05706106    16
STARLINK-30836          
1 58221C 23170R   26101.99076389 -.00039278  00000+0 -14596-2 0  1014
2 58221  43.0035   6.2277 0001909 271.7773  16.3747 15.26754415    11
STARLINK-30855          
1 58222C 23170S   26101.95534722 -.00003397  00000+0 -12300-3 0  1016
2 58222  43.0013   6.6272 0001468 268.2728  90.6238 15.27586498    13
STARLINK-30840          
1 58223C 23170T   26101.96715278 -.00042580  00000+0 -15427-2 0  1014
2 58223  43.0010   6.6099 0001301 269.0374 133.6454 15.27589607    13
STARLINK-30875          
1 58224C 23170U   26101.96715278  .00002775  00000+0  10050-3 0  1013
2 58224  43.0034   6.0820 0001471 268.1707   0.9007 15.27575022    10
STARLINK-30872          
1 58225C 23170V   26102.01854167 -.00104080  00000+0 -37688-2 0  1022
2 58225  43.0022 224.0866 0002091 268.3462 157.9671 15.27638789    19
STARLINK-30865          
1 58226C 23170W   26101.97131944 -.00061815  00000+0 -22398-2 0  1017
2 58226  43.0004 355.0560 0001314 265.9300  11.6351 15.27596754    13
STARLINK-30874          
1 58227C 23170X   26101.99215278  .00005632  00000+0  20923-3 0  1019
2 58227  43.0034   6.2205 0001434 270.4775  20.8055 15.26742847    16
STARLINK-30871          
1 58228C 23170Y   26102.01715278  .00009364  00000+0  33902-3 0  1027
2 58228  43.0016   6.1813 0001615 270.6078 111.0112 15.27587895    18
STARLINK-30861          
1 58230C 23171A   26101.99562500  .00024355  00000+0  94057-3 0  1019
2 58230  42.9972  97.9034 0002285 122.5338  82.7478 15.25449716    17
STARLINK-30867          
1 58231C 23171B   26101.94215278  .00035682  00000+0  12926-2 0  1011
2 58231  43.0013  97.1242 0001397 257.8342 105.4142 15.27555809    13
STARLINK-30880          
1 58232C 23171C   26101.98104167  .00021978  00000+0  81660-3 0  1015
2 58232  43.0010  96.8127 0001393 260.9415 357.3740 15.26729959    11
STARLINK-30777          
1 58233C 23171D   26102.00395833  .00015951  00000+0  57733-3 0  1021
2 58233  43.0013  97.4316 0001411 264.2617 163.3785 15.27594896    19
STARLINK-30860          
1 58234C 23171E   26101.99423611  .00020591  00000+0  74643-3 0  1019
2 58234  43.0014  96.7308 0001229 262.4999  69.9228 15.27540617    19
STARLINK-30853          
1 58236C 23171G   26102.02409722  .00006214  00000+0  23089-3 0  1028
2 58236  43.0033  97.1698 0001356 258.2657 344.5154 15.26737218    18
STARLINK-30866          
1 58237C 23171H   26101.94631944  .00028634  00000+0  10640-2 0  1019
2 58237  43.0016  97.2908 0001360 258.9834  41.5124 15.26722687    19
STARLINK-30817          
1 58238C 23171J   26102.01229167  .00008115  00000+0  30151-3 0  1022
2 58238  43.0035  97.2195 0001371 270.7266 272.0926 15.26735886    18
STARLINK-30847          
1 58239C 23171K   26102.01923611  .00007496  00000+0  27157-3 0  1021
2 58239  43.0036  97.1960 0001463 265.3189 310.0805 15.27565417    16
STARLINK-30848          
1 58240C 23171L   26102.01645833  .00010524  00000+0  38111-3 0  1028
2 58240  43.0030  96.9397 0001174 260.7415  45.5181 15.27577572    15
STARLINK-30843          
1 58241C 23171M   26101.99423611  .00016062  00000+0  58164-3 0  1015
2 58241  43.0036  97.2695 0001436 269.1959 189.8142 15.27577714    11
STARLINK-30877          
1 58242C 23171N   26102.00951389  .00012416  00000+0  44973-3 0  1020
2 58242  43.0008  96.9171 0001328 259.2929  37.0215 15.27569237    19
STARLINK-30864          
1 58243C 23171P   26102.01229167  .00009393  00000+0  34016-3 0  1021
2 58243  43.0037  97.0972 0001266 266.3571 327.4124 15.27577723    10
STARLINK-30854          
1 58244C 23171Q   26101.95812500  .00032683  00000+0  11841-2 0  1010
2 58244  43.0038  97.4482 0001437 263.3016  11.0550 15.27552624    15
STARLINK-30849          
1 58245C 23171R   26101.98451389  .00016312  00000+0  60606-3 0  1013
2 58245  43.0014  97.1378 0001537 257.1105 229.5948 15.26732908    13
STARLINK-30886          
1 58246C 23171S   26101.97479167  .00021545  00000+0  78034-3 0  1015
2 58246  43.0021  97.1527 0001098 259.4861 191.5139 15.27569031    10
STARLINK-30850          
1 58247C 23171T   26101.99909722  .00011908  00000+0  43129-3 0  1012
2 58247  43.0020  97.0672 0001058 261.9976 301.5876 15.27575765    13
STARLINK-30823          
1 58248C 23171U   26101.99701389  .00010911  00000+0  39527-3 0  1012
2 58248  43.0020  97.1433 0001298 258.4976 265.3236 15.27567418    10
STARLINK-30873          
1 58249C 23171V   26101.97270833  .00020295  00000+0  75395-3 0  1015
2 58249  43.0016  97.0908 0000950 253.8696 214.0324 15.26736251    15
STARLINK-30808          
1 58250C 23171W   26101.97201389  .00031329  00000+0  11349-2 0  1015
2 58250  43.0034  97.4482 0001570 257.5486  50.8249 15.27559592    19
STARLINK-30881          
1 58251C 23171X   26101.97756944  .00026762  00000+0  96932-3 0  1015
2 58251  43.0028  97.2197 0001331 271.5526 124.0608 15.27565837    12
STARLINK-30883          
1 58252C 23171Y   26101.96715278  .00022787  00000+0  82539-3 0  1011
2 58252  43.0015  97.0993 0001061 253.4757 190.8324 15.27566005    10
STARLINK-30907          
1 58352C 23177B   26101.98590278  .00015565  00000+0  56367-3 0  1017
2 58352  43.0014 162.3104 0001561 268.7167  48.5710 15.27575294    17
STARLINK-30896          
1 58353C 23177C   26101.97201389 -.00062234  00000+0 -22549-2 0  1010
2 58353  43.0041  20.8452 0001392 270.0554 113.1877 15.27597631    12
STARLINK-30832          
1 58354C 23177D   26101.94493056 -.00031870  00000+0 -11545-2 0  1018
2 58354  43.0011 163.2992 0001591 264.7325 228.6138 15.27588005    15
STARLINK-30903          
1 58355C 23177E   26101.97548611  .00029677  00000+0  10753-2 0  1010
2 58355  43.0010 162.4149 0001638 255.7007 349.9745 15.27552164    17
STARLINK-30905          
1 58356C 23177F   26101.98937500  .00008584  00000+0  31847-3 0  1013
2 58356  43.0018 162.3147 0002487 256.5248  59.1350 15.26784160    16
STARLINK-30842          
1 58357C 23177G   26101.95743056  .00013657  00000+0  52371-3 0  1014
2 58357  43.0041 148.7074 0002032 336.3061 172.5455 15.25689953    15
STARLINK-30858          
1 58358C 23177H   26101.97687500  .00008973  00000+0  32503-3 0  1018
2 58358  43.0016 162.3218 0001506 264.1355  24.6734 15.27571585    19
STARLINK-30878          
1 58359C 23177J   26102.00743056 -.00156920  00000+0 -58300-2 0  1024
2 58359  43.0003 165.6609 0001672 260.6855 148.7333 15.26821131    13
STARLINK-30897          
1 58360C 23177K   26101.98173611 -.00007783  00000+0 -57434-3 0  1015
2 58360  43.0009 171.0619 0001632 264.9353 300.6248 15.02533032    17
STARLINK-30885          
1 58361C 23177L   26101.96229167 -.00019219  00000+0 -69639-3 0  1019
2 58361  43.0012 162.5891 0001665 262.2679 228.4265 15.27574955    19
STARLINK-30890          
1 58362C 23177M   26102.01229167  .00027667  00000+0  10273-2 0  1021
2 58362  43.0017 162.3123 0001440 263.9968 138.1928 15.26749431    16
STARLINK-30909          
1 58363C 23177N   26101.96854167 -.00012111  00000+0 -45015-3 0  1011
2 58363  43.0018 162.5562 0001517 262.5872 259.8772 15.26733613    14
STARLINK-30904          
1 58364C 23177P   26101.96645833  .00003543  00000+0  23270-3 0  1016
2 58364  42.9998 168.0115 0004709  21.4315 345.7420 15.06860901    19
STARLINK-30918          
1 58365C 23177Q   26101.97826389  .00001857  00000+0  67224-4 0  1019
2 58365  43.0035 162.7385 0001383 261.2965 218.1913 15.27589978    19
STARLINK-30892          
1 58366C 23177R   26101.95604167 -.00183700  00000+0 -68392-2 0  1011
2 58366  43.0022 162.7289 0001860 262.1946 149.8367 15.26765464    16
STARLINK-30891          
1 58367C 23177S   26101.96159722  .00002677  00000+0  99538-4 0  1014
2 58367  43.0039 162.8878 0002000 269.0998  94.3704 15.26713510    14
STARLINK-30889          
1 58368C 23177T   26101.99284722  .00013142  00000+0  47600-3 0  1018
2 58368  43.0030 162.7004 0001737 270.8623 267.7756 15.27571534    19
